{
    "links": {
        "self": "http://www.neowsapp.com/rest/v1/neo/3826800?api_key=iIulBulltgU6a56xZRHN4H3l9WmuAYTsLGpBGhQ2"
    },
    "id": "3826800",
    "neo_reference_id": "3826800",
    "name": "(2018 PW21)",
    "designation": "2018 PW21",
    "nasa_jpl_url": "http://ssd.jpl.nasa.gov/sbdb.cgi?sstr=3826800",
    "absolute_magnitude_h": 24.9,
    "estimated_diameter": {
        "kilometers": {
            "estimated_diameter_min": 0.0278326768,
            "estimated_diameter_max": 0.0622357573
        },
        "meters": {
            "estimated_diameter_min": 27.8326768072,
            "estimated_diameter_max": 62.2357573367
        },
        "miles": {
            "estimated_diameter_min": 0.0172944182,
            "estimated_diameter_max": 0.0386714948
        },
        "feet": {
            "estimated_diameter_min": 91.3145593761,
            "estimated_diameter_max": 204.1855621004
        }
    },
    "is_potentially_hazardous_asteroid": false,
    "close_approach_data": [
        {
            "close_approach_date": "2018-07-31",
            "close_approach_date_full": "2018-Jul-31 16:53",
            "epoch_date_close_approach": 1533055980000,
            "relative_velocity": {
                "kilometers_per_second": "7.6071345471",
                "kilometers_per_hour": "27385.6843697237",
                "miles_per_hour": "17016.3992685097"
            },
            "miss_distance": {
                "astronomical": "0.0882631813",
                "lunar": "34.3343775257",
                "kilometers": "13203983.921903831",
                "miles": "8204575.1578656278"
            },
            "orbiting_body": "Earth"
        }
    ],
    "orbital_data": {
        "orbit_id": "3",
        "orbit_determination_date": "2018-09-07 06:58:12",
        "first_observation_date": "2018-08-11",
        "last_observation_date": "2018-09-06",
        "data_arc_in_days": 26,
        "observations_used": 25,
        "orbit_uncertainty": "7",
        "minimum_orbit_intersection": ".0876126",
        "jupiter_tisserand_invariant": "3.538",
        "epoch_osculation": "2459000.5",
        "eccentricity": ".4922199735925845",
        "semi_major_axis": "2.135007437808223",
        "inclination": "9.161697528462099",
        "ascending_node_longitude": "143.4285812009409",
        "orbital_period": "1139.455883964088",
        "perihelion_distance": "1.084114133150288",
        "perihelion_argument": "153.9009603483908",
        "aphelion_distance": "3.185900742466158",
        "perihelion_time": "2459460.197646769434",
        "mean_anomaly": "214.7630012131195",
        "mean_motion": ".3159402703223445",
        "equinox": "J2000",
        "orbit_class": {
            "orbit_class_type": "AMO",
            "orbit_class_description": "Near-Earth asteroid orbits similar to that of 1221 Amor",
            "orbit_class_range": "1.017 AU < q (perihelion) < 1.3 AU"
        }
    },
    "is_sentry_object": false
}